SL-3 R/B                
1 13154U 82039B   25302.88511239  .00003524  00000+0  21770-3 0  9998
2 13154  81.1840   6.5088 0032831  34.1346 326.1981 15.09176087361906
SL-3 R/B                
1 13403U 82079B   25302.86563294  .00007470  00000+0  31478-3 0  9995
2 13403  81.1489 347.3567 0024657 246.5090 113.3551 15.22915444357774
SL-14 R/B               
1 13553U 82092B   25302.92580124  .00000906  00000+0  99372-4 0  9999
2 13553  82.5660 263.6864 0021003  19.5758  34.6060 14.86477438309500
SL-3 R/B                
1 13819U 83010B   25302.85929132  .00015798  00000+0  36879-3 0  9990
2 13819  81.1046 162.1153 0018102 138.8830 221.3780 15.41901471337757
SL-3 R/B                
1 14208U 83075B   25302.92973501  .00014686  00000+0  43314-3 0  9998
2 14208  97.6108 297.9847 0022694 342.1183  17.9258 15.34854366310077
COSMOS 1536             
1 14699U 84013A   25302.89286559  .00011716  00000+0  51423-3 0  9992
2 14699  82.5464 237.6164 0016415  29.5157 330.7002 15.21704466252713
SL-14 R/B               
1 14820U 84027B   25302.91689250  .00000619  00000+0  68176-4 0  9995
2 14820  82.5446   7.6491 0019163  50.0084 310.2811 14.85807976228216
SL-8 R/B                
1 15483U 85006B   25302.92228322  .00000299  00000+0  10816-3 0  9990
2 15483  74.0433 141.7497 0017445  88.8828  16.4929 14.37681322135232
SL-12 R/B(2)            
1 15772U 85042D   25302.94117295  .00000145  00000+0  86672-4 0  9993
2 15772  71.1100   3.9506 0036592 326.0245 207.2111 14.21931428 95805
SL-14 R/B               
1 15945U 85069B   25302.94112227  .00000619  00000+0  67583-4 0  9990
2 15945  82.5256 147.8803 0017323 265.4664  94.4574 14.86248914153418
SL-16 R/B               
1 16182U 85097B   25302.73400576  .00000245  00000+0  14668-3 0  9999
2 16182  71.0038  56.2439 0005210  98.2491  51.7785 14.16575501 68685
SL-14 R/B               
1 16496U 86006B   25302.68048505  .00000802  00000+0  83060-4 0  9994
2 16496  82.5300  22.9995 0076492 348.1132  11.8275 14.86582175129746
