CCSDS_OMM_VERS = 2.0
CREATION_DATE  = 
ORIGINATOR     = 

OBJECT_NAME    = SL-3 R/B
OBJECT_ID      = 1982-039B
CENTER_NAME    = EARTH
REF_FRAME      = TEME
TIME_SYSTEM    = UTC
MEAN_ELEMENT_THEORY = SGP/SGP4

EPOCH          = 2025-10-29T21:14:33.710496
MEAN_MOTION    = 15.09176087
ECCENTRICITY   = .00328319
INCLINATION    = 81.1840
RA_OF_ASC_NODE = 6.5088
ARG_OF_PERICENTER = 34.1346
MEAN_ANOMALY   = 326.1981

EPHEMERIS_TYPE = 0
CLASSIFICATION_TYPE = U
NORAD_CAT_ID   = 13154
ELEMENT_SET_NO = 999
REV_AT_EPOCH   = 36190
BSTAR          = .21769823E-3
MEAN_MOTION_DOT = .3524E-4
MEAN_MOTION_DDOT = 0

CCSDS_OMM_VERS = 2.0
CREATION_DATE  = 
ORIGINATOR     = 

OBJECT_NAME    = SL-3 R/B
OBJECT_ID      = 1982-079B
CENTER_NAME    = EARTH
REF_FRAME      = TEME
TIME_SYSTEM    = UTC
MEAN_ELEMENT_THEORY = SGP/SGP4

EPOCH          = 2025-10-29T20:46:30.686016
MEAN_MOTION    = 15.22915444
ECCENTRICITY   = .00246572
INCLINATION    = 81.1489
RA_OF_ASC_NODE = 347.3567
ARG_OF_PERICENTER = 246.5090
MEAN_ANOMALY   = 113.3551

EPHEMERIS_TYPE = 0
CLASSIFICATION_TYPE = U
NORAD_CAT_ID   = 13403
ELEMENT_SET_NO = 999
REV_AT_EPOCH   = 35777
BSTAR          = .31477805E-3
MEAN_MOTION_DOT = .747E-4
MEAN_MOTION_DDOT = 0

CCSDS_OMM_VERS = 2.0
CREATION_DATE  = 
ORIGINATOR     = 

OBJECT_NAME    = SL-14 R/B
OBJECT_ID      = 1982-092B
CENTER_NAME    = EARTH
REF_FRAME      = TEME
TIME_SYSTEM    = UTC
MEAN_ELEMENT_THEORY = SGP/SGP4

EPOCH          = 2025-10-29T22:13:09.227136
MEAN_MOTION    = 14.86477438
ECCENTRICITY   = .00210039
INCLINATION    = 82.5660
RA_OF_ASC_NODE = 263.6864
ARG_OF_PERICENTER = 19.5758
MEAN_ANOMALY   = 34.6060

EPHEMERIS_TYPE = 0
CLASSIFICATION_TYPE = U
NORAD_CAT_ID   = 13553
ELEMENT_SET_NO = 999
REV_AT_EPOCH   = 30950
BSTAR          = .99371847E-4
MEAN_MOTION_DOT = .906E-5
MEAN_MOTION_DDOT = 0

CCSDS_OMM_VERS = 2.0
CREATION_DATE  = 
ORIGINATOR     = 

OBJECT_NAME    = SL-3 R/B
OBJECT_ID      = 1983-010B
CENTER_NAME    = EARTH
REF_FRAME      = TEME
TIME_SYSTEM    = UTC
MEAN_ELEMENT_THEORY = SGP/SGP4

EPOCH          = 2025-10-29T20:37:22.770048
MEAN_MOTION    = 15.41901471
ECCENTRICITY   = .00181023
INCLINATION    = 81.1046
RA_OF_ASC_NODE = 162.1153
ARG_OF_PERICENTER = 138.8830
MEAN_ANOMALY   = 221.3780

EPHEMERIS_TYPE = 0
CLASSIFICATION_TYPE = U
NORAD_CAT_ID   = 13819
ELEMENT_SET_NO = 999
REV_AT_EPOCH   = 33775
BSTAR          = .36878575E-3
MEAN_MOTION_DOT = .15798E-3
MEAN_MOTION_DDOT = 0

CCSDS_OMM_VERS = 2.0
CREATION_DATE  = 
ORIGINATOR     = 

OBJECT_NAME    = SL-3 R/B
OBJECT_ID      = 1983-075B
CENTER_NAME    = EARTH
REF_FRAME      = TEME
TIME_SYSTEM    = UTC
MEAN_ELEMENT_THEORY = SGP/SGP4

EPOCH          = 2025-10-29T22:18:49.104864
MEAN_MOTION    = 15.34854366
ECCENTRICITY   = .00226948
INCLINATION    = 97.6108
RA_OF_ASC_NODE = 297.9847
ARG_OF_PERICENTER = 342.1183
MEAN_ANOMALY   = 17.9258

EPHEMERIS_TYPE = 0
CLASSIFICATION_TYPE = U
NORAD_CAT_ID   = 14208
ELEMENT_SET_NO = 999
REV_AT_EPOCH   = 31007
BSTAR          = .43313517E-3
MEAN_MOTION_DOT = .14686E-3
MEAN_MOTION_DDOT = 0

CCSDS_OMM_VERS = 2.0
CREATION_DATE  = 
ORIGINATOR     = 

OBJECT_NAME    = COSMOS 1536
OBJECT_ID      = 1984-013A
CENTER_NAME    = EARTH
REF_FRAME      = TEME
TIME_SYSTEM    = UTC
MEAN_ELEMENT_THEORY = SGP/SGP4

EPOCH          = 2025-10-29T21:25:43.586976
MEAN_MOTION    = 15.21704466
ECCENTRICITY   = .00164152
INCLINATION    = 82.5464
RA_OF_ASC_NODE = 237.6164
ARG_OF_PERICENTER = 29.5157
MEAN_ANOMALY   = 330.7002

EPHEMERIS_TYPE = 0
CLASSIFICATION_TYPE = U
NORAD_CAT_ID   = 14699
ELEMENT_SET_NO = 999
REV_AT_EPOCH   = 25271
BSTAR          = .51422945E-3
MEAN_MOTION_DOT = .11716E-3
MEAN_MOTION_DDOT = 0

CCSDS_OMM_VERS = 2.0
CREATION_DATE  = 
ORIGINATOR     = 

OBJECT_NAME    = SL-14 R/B
OBJECT_ID      = 1984-027B
CENTER_NAME    = EARTH
REF_FRAME      = TEME
TIME_SYSTEM    = UTC
MEAN_ELEMENT_THEORY = SGP/SGP4

EPOCH          = 2025-10-29T22:00:19.512000
MEAN_MOTION    = 14.85807976
ECCENTRICITY   = .00191637
INCLINATION    = 82.5446
RA_OF_ASC_NODE = 7.6491
ARG_OF_PERICENTER = 50.0084
MEAN_ANOMALY   = 310.2811

EPHEMERIS_TYPE = 0
CLASSIFICATION_TYPE = U
NORAD_CAT_ID   = 14820
ELEMENT_SET_NO = 999
REV_AT_EPOCH   = 22821
BSTAR          = .6817578E-4
MEAN_MOTION_DOT = .619E-5
MEAN_MOTION_DDOT = 0

CCSDS_OMM_VERS = 2.0
CREATION_DATE  = 
ORIGINATOR     = 

OBJECT_NAME    = SL-8 R/B
OBJECT_ID      = 1985-006B
CENTER_NAME    = EARTH
REF_FRAME      = TEME
TIME_SYSTEM    = UTC
MEAN_ELEMENT_THEORY = SGP/SGP4

EPOCH          = 2025-10-29T22:08:05.270208
MEAN_MOTION    = 14.37681322
ECCENTRICITY   = .00174453
INCLINATION    = 74.0433
RA_OF_ASC_NODE = 141.7497
ARG_OF_PERICENTER = 88.8828
MEAN_ANOMALY   = 16.4929

EPHEMERIS_TYPE = 0
CLASSIFICATION_TYPE = U
NORAD_CAT_ID   = 15483
ELEMENT_SET_NO = 999
REV_AT_EPOCH   = 13523
BSTAR          = .10815603E-3
MEAN_MOTION_DOT = .299E-5
MEAN_MOTION_DDOT = 0

CCSDS_OMM_VERS = 2.0
CREATION_DATE  = 
ORIGINATOR     = 

OBJECT_NAME    = SL-12 R/B(2)
OBJECT_ID      = 1985-042D
CENTER_NAME    = EARTH
REF_FRAME      = TEME
TIME_SYSTEM    = UTC
MEAN_ELEMENT_THEORY = SGP/SGP4

EPOCH          = 2025-10-29T22:35:17.342880
MEAN_MOTION    = 14.21931428
ECCENTRICITY   = .00365924
INCLINATION    = 71.1100
RA_OF_ASC_NODE = 3.9506
ARG_OF_PERICENTER = 326.0245
MEAN_ANOMALY   = 207.2111

EPHEMERIS_TYPE = 0
CLASSIFICATION_TYPE = U
NORAD_CAT_ID   = 15772
ELEMENT_SET_NO = 999
REV_AT_EPOCH   = 9580
BSTAR          = .86672465E-4
MEAN_MOTION_DOT = .145E-5
MEAN_MOTION_DDOT = 0

CCSDS_OMM_VERS = 2.0
CREATION_DATE  = 
ORIGINATOR     = 

OBJECT_NAME    = SL-14 R/B
OBJECT_ID      = 1985-069B
CENTER_NAME    = EARTH
REF_FRAME      = TEME
TIME_SYSTEM    = UTC
MEAN_ELEMENT_THEORY = SGP/SGP4

EPOCH          = 2025-10-29T22:35:12.964128
MEAN_MOTION    = 14.86248914
ECCENTRICITY   = .0017323
INCLINATION    = 82.5256
RA_OF_ASC_NODE = 147.8803
ARG_OF_PERICENTER = 265.4664
MEAN_ANOMALY   = 94.4574

EPHEMERIS_TYPE = 0
CLASSIFICATION_TYPE = U
NORAD_CAT_ID   = 15945
ELEMENT_SET_NO = 999
REV_AT_EPOCH   = 15341
BSTAR          = .67582619E-4
MEAN_MOTION_DOT = .619E-5
MEAN_MOTION_DDOT = 0

CCSDS_OMM_VERS = 2.0
CREATION_DATE  = 
ORIGINATOR     = 

OBJECT_NAME    = SL-16 R/B
OBJECT_ID      = 1985-097B
CENTER_NAME    = EARTH
REF_FRAME      = TEME
TIME_SYSTEM    = UTC
MEAN_ELEMENT_THEORY = SGP/SGP4

EPOCH          = 2025-10-29T17:36:58.097664
MEAN_MOTION    = 14.16575501
ECCENTRICITY   = .00052109
INCLINATION    = 71.0038
RA_OF_ASC_NODE = 56.2439
ARG_OF_PERICENTER = 98.2491
MEAN_ANOMALY   = 51.7785

EPHEMERIS_TYPE = 0
CLASSIFICATION_TYPE = U
NORAD_CAT_ID   = 16182
ELEMENT_SET_NO = 999
REV_AT_EPOCH   = 6868
BSTAR          = .14667659E-3
MEAN_MOTION_DOT = .245E-5
MEAN_MOTION_DDOT = 0

CCSDS_OMM_VERS = 2.0
CREATION_DATE  = 
ORIGINATOR     = 

OBJECT_NAME    = SL-14 R/B
OBJECT_ID      = 1986-006B
CENTER_NAME    = EARTH
REF_FRAME      = TEME
TIME_SYSTEM    = UTC
MEAN_ELEMENT_THEORY = SGP/SGP4

EPOCH          = 2025-10-29T16:19:53.908320
MEAN_MOTION    = 14.86582175
ECCENTRICITY   = .00764925
INCLINATION    = 82.5300
RA_OF_ASC_NODE = 22.9995
ARG_OF_PERICENTER = 348.1132
MEAN_ANOMALY   = 11.8275

EPHEMERIS_TYPE = 0
CLASSIFICATION_TYPE = U
NORAD_CAT_ID   = 16496
ELEMENT_SET_NO = 999
REV_AT_EPOCH   = 12974
BSTAR          = .83059645E-4
MEAN_MOTION_DOT = .802E-5
MEAN_MOTION_DDOT = 0

